[{"OBJECT_NAME":"STARLINK-5533","OBJECT_ID":"2023-058AQ","EPOCH":"2026-03-09T22:52:13.220256","MEAN_MOTION":15.01262784,"ECCENTRICITY":0.00019384,"INCLINATION":97.6048,"RA_OF_ASC_NODE":70.5271,"ARG_OF_PERICENTER":89.8933,"MEAN_ANOMALY":270.2514,"EPHEMERIS_TYPE":0,"CLASSIFICATION_TYPE":"U","NORAD_CAT_ID":56355,"ELEMENT_SET_NO":999,"REV_AT_EPOCH":15817,"BSTAR":5.7430795e-5,"MEAN_MOTION_DOT":6.79e-6,"MEAN_MOTION_DDOT":0},{"OBJECT_NAME":"CZ-6A DEB","OBJECT_ID":"2022-151KB","EPOCH":"2026-03-09T19:20:41.637408","MEAN_MOTION":14.94061736,"ECCENTRICITY":0.0071589,"INCLINATION":98.7004,"RA_OF_ASC_NODE":166.2159,"ARG_OF_PERICENTER":166.3306,"MEAN_ANOMALY":193.9872,"EPHEMERIS_TYPE":0,"CLASSIFICATION_TYPE":"U","NORAD_CAT_ID":54523,"ELEMENT_SET_NO":999,"REV_AT_EPOCH":17710,"BSTAR":0.0044467837,"MEAN_MOTION_DOT":0.00050189,"MEAN_MOTION_DDOT":0}]
